start=new Date('2022-10-26T00:00:00.000Z').valueOf();
sats=[{"ARG_OF_PERICENTER":"30.4208","MEAN_ANOMALY":"103.3975","INCLINATION":"53.2146","TLE_LINE2":"2 53856  53.2146  76.2780 0001506  30.4208 103.3975 15.73176349  1307","PERIOD":"91.535","MEAN_MOTION_DOT":"0.00061908","ELEMENT_SET_NO":"999","TIME_SYSTEM":"UTC","MEAN_ELEMENT_THEORY":"SGP4","FILE":"3633327","OBJECT_ID":"2022-114AQ","CLASSIFICATION_TYPE":"U","OBJECT_NAME":"STARLINK-4795","DECAY_DATE":null,"EPOCH":"2022-10-25T22:00:01.999584","REV_AT_EPOCH":"130","RA_OF_ASC_NODE":"76.2780","COUNTRY_CODE":"US","SEMIMAJOR_AXIS":"6727.963","SITE":"AFETR","TLE_LINE1":"1 53856U 22114AQ  22298.91668981  .00061908  00000-0  44271-3 0  9993","CENTER_NAME":"EARTH","MEAN_MOTION":"15.73176349","NORAD_CAT_ID":"53856","LAUNCH_DATE":"2022-09-19","OBJECT_TYPE":"PAYLOAD","EPHEMERIS_TYPE":"0","ECCENTRICITY":"0.00015060","MEAN_MOTION_DDOT":"0.0000000000000","BSTAR":"0.00044271000000","RCS_SIZE":"LARGE","PERIAPSIS":"348.814","APOAPSIS":"350.841","GP_ID":"216157223","REF_FRAME":"TEME"},{"TLE_LINE2":"2 53857  53.2145  76.2868 0001607  39.6418  89.4445 15.73165482  1302","PERIOD":"91.535","INCLINATION":"53.2145","MEAN_ANOMALY":"89.4445","ARG_OF_PERICENTER":"39.6418","ELEMENT_SET_NO":"999","TIME_SYSTEM":"UTC","MEAN_MOTION_DOT":"0.00070751","OBJECT_ID":"2022-114AR","FILE":"3633327","MEAN_ELEMENT_THEORY":"SGP4","REV_AT_EPOCH":"130","EPOCH":"2022-10-25T22:00:01.999584","DECAY_DATE":null,"OBJECT_NAME":"STARLINK-4809","CLASSIFICATION_TYPE":"U","SEMIMAJOR_AXIS":"6727.994","RA_OF_ASC_NODE":"76.2868","COUNTRY_CODE":"US","NORAD_CAT_ID":"53857","LAUNCH_DATE":"2022-09-19","TLE_LINE1":"1 53857U 22114AR  22298.91668981  .00070751  00000-0  50502-3 0  9994","SITE":"AFETR","MEAN_MOTION":"15.73165482","CENTER_NAME":"EARTH","MEAN_MOTION_DDOT":"0.0000000000000","OBJECT_TYPE":"PAYLOAD","EPHEMERIS_TYPE":"0","ECCENTRICITY":"0.00016070","APOAPSIS":"350.940","GP_ID":"216157398","REF_FRAME":"TEME","PERIAPSIS":"348.777","BSTAR":"0.00050502000000","RCS_SIZE":"LARGE"},{"MEAN_MOTION_DOT":"0.00023089","ELEMENT_SET_NO":"999","TIME_SYSTEM":"UTC","ARG_OF_PERICENTER":"39.6543","TLE_LINE2":"2 53858  53.2136  76.2848 0001682  39.6543  91.7693 15.73210074  1302","PERIOD":"91.533","INCLINATION":"53.2136","MEAN_ANOMALY":"91.7693","DECAY_DATE":null,"OBJECT_NAME":"STARLINK-4798","CLASSIFICATION_TYPE":"U","REV_AT_EPOCH":"130","EPOCH":"2022-10-25T22:00:01.999584","FILE":"3633327","MEAN_ELEMENT_THEORY":"SGP4","OBJECT_ID":"2022-114AS","SITE":"AFETR","TLE_LINE1":"1 53858U 22114AS  22298.91668981  .00023089  00000-0  16840-3 0  9994","CENTER_NAME":"EARTH","MEAN_MOTION":"15.73210074","NORAD_CAT_ID":"53858","LAUNCH_DATE":"2022-09-19","SEMIMAJOR_AXIS":"6727.866","RA_OF_ASC_NODE":"76.2848","COUNTRY_CODE":"US","BSTAR":"0.00016840000000","RCS_SIZE":"LARGE","APOAPSIS":"350.863","REF_FRAME":"TEME","GP_ID":"216157731","PERIAPSIS":"348.600","MEAN_MOTION_DDOT":"0.0000000000000","EPHEMERIS_TYPE":"0","OBJECT_TYPE":"PAYLOAD","ECCENTRICITY":"0.00016820"},{"MEAN_MOTION_DOT":"-0.00014617","ELEMENT_SET_NO":"999","TIME_SYSTEM":"UTC","ARG_OF_PERICENTER":"40.2546","TLE_LINE2":"2 53859  53.2147  76.2840 0001850  40.2546  90.0140 15.73197939  1308","PERIOD":"91.533","MEAN_ANOMALY":"90.0140","INCLINATION":"53.2147","DECAY_DATE":null,"OBJECT_NAME":"STARLINK-4790","CLASSIFICATION_TYPE":"U","REV_AT_EPOCH":"130","EPOCH":"2022-10-25T22:00:01.999584","FILE":"3633327","MEAN_ELEMENT_THEORY":"SGP4","OBJECT_ID":"2022-114AT","TLE_LINE1":"1 53859U 22114AT  22298.91668981 -.00014617  00000-0 -99903-4 0  9996","SITE":"AFETR","MEAN_MOTION":"15.73197939","CENTER_NAME":"EARTH","NORAD_CAT_ID":"53859","LAUNCH_DATE":"2022-09-19","SEMIMAJOR_AXIS":"6727.901","RA_OF_ASC_NODE":"76.2840","COUNTRY_CODE":"US","RCS_SIZE":"LARGE","BSTAR":"-0.00009990300000","APOAPSIS":"351.011","REF_FRAME":"TEME","GP_ID":"216157837","PERIAPSIS":"348.521","MEAN_MOTION_DDOT":"0.0000000000000","OBJECT_TYPE":"PAYLOAD","EPHEMERIS_TYPE":"0","ECCENTRICITY":"0.00018500"},{"MEAN_ANOMALY":"98.5524","INCLINATION":"53.2146","PERIOD":"91.530","TLE_LINE2":"2 53860  53.2146  76.2795 0001614  34.6540  98.5524 15.73255700  1307","ARG_OF_PERICENTER":"34.6540","TIME_SYSTEM":"UTC","ELEMENT_SET_NO":"999","MEAN_MOTION_DOT":"-0.00033600","OBJECT_ID":"2022-114AU","MEAN_ELEMENT_THEORY":"SGP4","FILE":"3633327","EPOCH":"2022-10-25T22:00:01.999584","REV_AT_EPOCH":"130","CLASSIFICATION_TYPE":"U","DECAY_DATE":null,"OBJECT_NAME":"STARLINK-4799","COUNTRY_CODE":"US","RA_OF_ASC_NODE":"76.2795","SEMIMAJOR_AXIS":"6727.736","LAUNCH_DATE":"2022-09-19","NORAD_CAT_ID":"53860","MEAN_MOTION":"15.73255700","CENTER_NAME":"EARTH","TLE_LINE1":"1 53860U 22114AU  22298.91668981 -.00033600  00000-0 -23536-3 0  9999","SITE":"AFETR","ECCENTRICITY":"0.00016140","OBJECT_TYPE":"PAYLOAD","EPHEMERIS_TYPE":"0","MEAN_MOTION_DDOT":"0.0000000000000","PERIAPSIS":"348.516","REF_FRAME":"TEME","GP_ID":"216156806","APOAPSIS":"350.687","RCS_SIZE":"LARGE","BSTAR":"-0.00023536000000"},{"OBJECT_ID":"2022-114AV","FILE":"3633327","MEAN_ELEMENT_THEORY":"SGP4","REV_AT_EPOCH":"130","EPOCH":"2022-10-25T22:00:01.999584","OBJECT_NAME":"STARLINK-4781","DECAY_DATE":null,"CLASSIFICATION_TYPE":"U","PERIOD":"91.531","TLE_LINE2":"2 53861  53.2147  76.2802 0001814  44.1047  87.8813 15.73245760  1305","INCLINATION":"53.2147","MEAN_ANOMALY":"87.8813","ARG_OF_PERICENTER":"44.1047","TIME_SYSTEM":"UTC","ELEMENT_SET_NO":"999","MEAN_MOTION_DOT":"-0.00015744","MEAN_MOTION_DDOT":"0.0000000000000","ECCENTRICITY":"0.00018140","OBJECT_TYPE":"PAYLOAD","EPHEMERIS_TYPE":"0","REF_FRAME":"TEME","GP_ID":"216156981","APOAPSIS":"350.850","PERIAPSIS":"348.409","BSTAR":"-0.00010774000000","RCS_SIZE":"LARGE","SEMIMAJOR_AXIS":"6727.765","COUNTRY_CODE":"US","RA_OF_ASC_NODE":"76.2802","LAUNCH_DATE":"2022-09-19","NORAD_CAT_ID":"53861","MEAN_MOTION":"15.73245760","CENTER_NAME":"EARTH","SITE":"AFETR","TLE_LINE1":"1 53861U 22114AV  22298.91668981 -.00015744  00000-0 -10774-3 0  9999"},{"COUNTRY_CODE":"US","RA_OF_ASC_NODE":"76.2769","SEMIMAJOR_AXIS":"6727.847","LAUNCH_DATE":"2022-09-19","NORAD_CAT_ID":"53862","CENTER_NAME":"EARTH","MEAN_MOTION":"15.73217024","SITE":"AFETR","TLE_LINE1":"1 53862U 22114AW  22298.91668981 -.00005325  00000-0 -33510-4 0  9998","ECCENTRICITY":"0.00018940","EPHEMERIS_TYPE":"0","OBJECT_TYPE":"PAYLOAD","MEAN_MOTION_DDOT":"0.0000000000000","PERIAPSIS":"348.437","GP_ID":"216158013","REF_FRAME":"TEME","APOAPSIS":"350.986","BSTAR":"-0.00003351000000","RCS_SIZE":"LARGE","MEAN_ANOMALY":"98.7064","INCLINATION":"53.2149","PERIOD":"91.532","TLE_LINE2":"2 53862  53.2149  76.2769 0001894  35.7098  98.7064 15.73217024  1301","ARG_OF_PERICENTER":"35.7098","TIME_SYSTEM":"UTC","ELEMENT_SET_NO":"999","MEAN_MOTION_DOT":"-0.00005325","OBJECT_ID":"2022-114AW","MEAN_ELEMENT_THEORY":"SGP4","FILE":"3633327","EPOCH":"2022-10-25T22:00:01.999584","REV_AT_EPOCH":"130","CLASSIFICATION_TYPE":"U","DECAY_DATE":null,"OBJECT_NAME":"STARLINK-4792"},{"MEAN_MOTION_DOT":"0.00003122","ELEMENT_SET_NO":"999","TIME_SYSTEM":"UTC","ARG_OF_PERICENTER":"29.4027","TLE_LINE2":"2 53863  53.2147  76.2787 0001919  29.4027 103.2134 15.73216770  1307","PERIOD":"91.532","MEAN_ANOMALY":"103.2134","INCLINATION":"53.2147","OBJECT_NAME":"STARLINK-4788","DECAY_DATE":null,"CLASSIFICATION_TYPE":"U","REV_AT_EPOCH":"130","EPOCH":"2022-10-25T22:00:01.999584","FILE":"3633327","MEAN_ELEMENT_THEORY":"SGP4","OBJECT_ID":"2022-114AX","SITE":"AFETR","TLE_LINE1":"1 53863U 22114AX  22298.91668981  .00003122  00000-0  26640-4 0  9996","MEAN_MOTION":"15.73216770","CENTER_NAME":"EARTH","NORAD_CAT_ID":"53863","LAUNCH_DATE":"2022-09-19","SEMIMAJOR_AXIS":"6727.847","RA_OF_ASC_NODE":"76.2787","COUNTRY_CODE":"US","RCS_SIZE":"LARGE","BSTAR":"0.00002664000000","APOAPSIS":"351.003","GP_ID":"216157556","REF_FRAME":"TEME","PERIAPSIS":"348.421","MEAN_MOTION_DDOT":"0.0000000000000","OBJECT_TYPE":"PAYLOAD","EPHEMERIS_TYPE":"0","ECCENTRICITY":"0.00019190"},{"MEAN_MOTION_DOT":"0.00005440","ELEMENT_SET_NO":"999","TIME_SYSTEM":"UTC","ARG_OF_PERICENTER":"32.5576","TLE_LINE2":"2 53864  53.2147  76.2746 0001887  32.5576 103.0090 15.73223529  1300","PERIOD":"91.532","INCLINATION":"53.2147","MEAN_ANOMALY":"103.0090","OBJECT_NAME":"STARLINK-4779","DECAY_DATE":null,"CLASSIFICATION_TYPE":"U","REV_AT_EPOCH":"130","EPOCH":"2022-10-25T22:00:01.999584","FILE":"3633327","MEAN_ELEMENT_THEORY":"SGP4","OBJECT_ID":"2022-114AY","TLE_LINE1":"1 53864U 22114AY  22298.91668981  .00005440  00000-0  43114-4 0  9997","SITE":"AFETR","CENTER_NAME":"EARTH","MEAN_MOTION":"15.73223529","NORAD_CAT_ID":"53864","LAUNCH_DATE":"2022-09-19","SEMIMAJOR_AXIS":"6727.828","RA_OF_ASC_NODE":"76.2746","COUNTRY_CODE":"US","BSTAR":"0.00004311400000","RCS_SIZE":"LARGE","APOAPSIS":"350.963","GP_ID":"216157224","REF_FRAME":"TEME","PERIAPSIS":"348.424","MEAN_MOTION_DDOT":"0.0000000000000","OBJECT_TYPE":"PAYLOAD","EPHEMERIS_TYPE":"0","ECCENTRICITY":"0.00018870"},{"ELEMENT_SET_NO":"999","TIME_SYSTEM":"UTC","MEAN_MOTION_DOT":"0.00045729","INCLINATION":"53.2149","MEAN_ANOMALY":"95.9459","TLE_LINE2":"2 53865  53.2149  76.2753 0001845  39.0527  95.9459 15.73175372  1303","PERIOD":"91.535","ARG_OF_PERICENTER":"39.0527","EPOCH":"2022-10-25T22:00:01.999584","REV_AT_EPOCH":"130","CLASSIFICATION_TYPE":"U","DECAY_DATE":null,"OBJECT_NAME":"STARLINK-4785","OBJECT_ID":"2022-114AZ","MEAN_ELEMENT_THEORY":"SGP4","FILE":"3633327","NORAD_CAT_ID":"53865","LAUNCH_DATE":"2022-09-19","TLE_LINE1":"1 53865U 22114AZ  22298.91668981  .00045729  00000-0  32880-3 0  9999","SITE":"AFETR","CENTER_NAME":"EARTH","MEAN_MOTION":"15.73175372","RA_OF_ASC_NODE":"76.2753","COUNTRY_CODE":"US","SEMIMAJOR_AXIS":"6727.965","PERIAPSIS":"348.589","APOAPSIS":"351.072","REF_FRAME":"TEME","GP_ID":"216157399","BSTAR":"0.00032880000000","RCS_SIZE":"LARGE","OBJECT_TYPE":"PAYLOAD","EPHEMERIS_TYPE":"0","ECCENTRICITY":"0.00018450","MEAN_MOTION_DDOT":"0.0000000000000"}];
